[{"OBJECT_NAME":"KUIPER-00132","OBJECT_ID":"2025-217B","EPOCH":"2026-03-05T03:21:06.288768","MEAN_MOTION":15.39577988,"ECCENTRICITY":0.0005892,"INCLINATION":51.8623,"RA_OF_ASC_NODE":25.5809,"ARG_OF_PERICENTER":311.0724,"MEAN_ANOMALY":48.9754,"EPHEMERIS_TYPE":0,"CLASSIFICATION_TYPE":"U","NORAD_CAT_ID":65763,"ELEMENT_SET_NO":999,"REV_AT_EPOCH":2472,"BSTAR":0.0011294,"MEAN_MOTION_DOT":0.00045044,"MEAN_MOTION_DDOT":0},{"OBJECT_NAME":"KUIPER-00133","OBJECT_ID":"2025-217C","EPOCH":"2026-03-05T01:07:02.969760","MEAN_MOTION":14.79950269,"ECCENTRICITY":0.0002007,"INCLINATION":51.9042,"RA_OF_ASC_NODE":73.6515,"ARG_OF_PERICENTER":15.5231,"MEAN_ANOMALY":344.5793,"EPHEMERIS_TYPE":0,"CLASSIFICATION_TYPE":"U","NORAD_CAT_ID":65764,"ELEMENT_SET_NO":999,"REV_AT_EPOCH":2405,"BSTAR":0.00032186,"MEAN_MOTION_DOT":2.234e-5,"MEAN_MOTION_DDOT":0},{"OBJECT_NAME":"KUIPER-00139","OBJECT_ID":"2025-217D","EPOCH":"2026-03-04T09:15:06.271200","MEAN_MOTION":15.01785245,"ECCENTRICITY":0.00071241,"INCLINATION":51.8863,"RA_OF_ASC_NODE":58.0808,"ARG_OF_PERICENTER":302.6828,"MEAN_ANOMALY":57.3456,"EPHEMERIS_TYPE":0,"CLASSIFICATION_TYPE":"U","NORAD_CAT_ID":65765,"ELEMENT_SET_NO":999,"REV_AT_EPOCH":2421,"BSTAR":0.0011755541,"MEAN_MOTION_DOT":0.0001526,"MEAN_MOTION_DDOT":0},{"OBJECT_NAME":"KUIPER-00142","OBJECT_ID":"2025-217E","EPOCH":"2026-03-05T04:00:14.216544","MEAN_MOTION":14.79933241,"ECCENTRICITY":6.05e-5,"INCLINATION":51.8999,"RA_OF_ASC_NODE":55.5901,"ARG_OF_PERICENTER":95.5888,"MEAN_ANOMALY":264.5143,"EPHEMERIS_TYPE":0,"CLASSIFICATION_TYPE":"U","NORAD_CAT_ID":65766,"ELEMENT_SET_NO":999,"REV_AT_EPOCH":2431,"BSTAR":0.00055407,"MEAN_MOTION_DOT":4.005e-5,"MEAN_MOTION_DDOT":0},{"OBJECT_NAME":"KUIPER-00145","OBJECT_ID":"2025-217F","EPOCH":"2026-03-05T03:56:12.585984","MEAN_MOTION":14.79940369,"ECCENTRICITY":8.31e-5,"INCLINATION":51.8997,"RA_OF_ASC_NODE":58.1155,"ARG_OF_PERICENTER":95.593,"MEAN_ANOMALY":264.5127,"EPHEMERIS_TYPE":0,"CLASSIFICATION_TYPE":"U","NORAD_CAT_ID":65767,"ELEMENT_SET_NO":999,"REV_AT_EPOCH":2427,"BSTAR":0.00072312,"MEAN_MOTION_DOT":5.297e-5,"MEAN_MOTION_DDOT":0},{"OBJECT_NAME":"KUIPER-00147","OBJECT_ID":"2025-217G","EPOCH":"2026-03-04T23:49:20.203680","MEAN_MOTION":14.79956268,"ECCENTRICITY":7.31e-5,"INCLINATION":51.8992,"RA_OF_ASC_NODE":61.3703,"ARG_OF_PERICENTER":91.9425,"MEAN_ANOMALY":268.1621,"EPHEMERIS_TYPE":0,"CLASSIFICATION_TYPE":"U","NORAD_CAT_ID":65768,"ELEMENT_SET_NO":999,"REV_AT_EPOCH":2421,"BSTAR":0.00068221,"MEAN_MOTION_DOT":4.986e-5,"MEAN_MOTION_DDOT":0},{"OBJECT_NAME":"KUIPER-00148","OBJECT_ID":"2025-217H","EPOCH":"2026-03-05T02:30:18.565056","MEAN_MOTION":15.09595108,"ECCENTRICITY":0.0008472,"INCLINATION":51.8789,"RA_OF_ASC_NODE":45.9004,"ARG_OF_PERICENTER":338.6378,"MEAN_ANOMALY":21.4242,"EPHEMERIS_TYPE":0,"CLASSIFICATION_TYPE":"U","NORAD_CAT_ID":65769,"ELEMENT_SET_NO":999,"REV_AT_EPOCH":2444,"BSTAR":0.00099951,"MEAN_MOTION_DOT":0.00016009,"MEAN_MOTION_DDOT":0},{"OBJECT_NAME":"KUIPER-00150","OBJECT_ID":"2025-217J","EPOCH":"2026-03-05T01:10:47.485344","MEAN_MOTION":14.8000336,"ECCENTRICITY":7.58e-5,"INCLINATION":51.9004,"RA_OF_ASC_NODE":71.1239,"ARG_OF_PERICENTER":45.6229,"MEAN_ANOMALY":314.4795,"EPHEMERIS_TYPE":0,"CLASSIFICATION_TYPE":"U","NORAD_CAT_ID":65770,"ELEMENT_SET_NO":999,"REV_AT_EPOCH":2408,"BSTAR":0.00071394,"MEAN_MOTION_DOT":5.235e-5,"MEAN_MOTION_DDOT":0},{"OBJECT_NAME":"KUIPER-00151","OBJECT_ID":"2025-217K","EPOCH":"2026-03-04T07:32:59.522784","MEAN_MOTION":14.79967528,"ECCENTRICITY":0.00010291,"INCLINATION":51.9008,"RA_OF_ASC_NODE":66.8695,"ARG_OF_PERICENTER":49.5936,"MEAN_ANOMALY":310.5116,"EPHEMERIS_TYPE":0,"CLASSIFICATION_TYPE":"U","NORAD_CAT_ID":65771,"ELEMENT_SET_NO":999,"REV_AT_EPOCH":2408,"BSTAR":0.00093651059,"MEAN_MOTION_DOT":6.931e-5,"MEAN_MOTION_DDOT":0},{"OBJECT_NAME":"KUIPER-00152","OBJECT_ID":"2025-217L","EPOCH":"2026-03-04T23:16:11.821728","MEAN_MOTION":14.79970804,"ECCENTRICITY":8.47e-5,"INCLINATION":51.9005,"RA_OF_ASC_NODE":51.4658,"ARG_OF_PERICENTER":130.6061,"MEAN_ANOMALY":229.4975,"EPHEMERIS_TYPE":0,"CLASSIFICATION_TYPE":"U","NORAD_CAT_ID":65772,"ELEMENT_SET_NO":999,"REV_AT_EPOCH":2435,"BSTAR":0.00013825,"MEAN_MOTION_DOT":8.34e-6,"MEAN_MOTION_DDOT":0},{"OBJECT_NAME":"KUIPER-00153","OBJECT_ID":"2025-217M","EPOCH":"2026-03-04T07:33:48.487392","MEAN_MOTION":15.13107826,"ECCENTRICITY":0.00104968,"INCLINATION":51.8776,"RA_OF_ASC_NODE":52.5687,"ARG_OF_PERICENTER":308.9568,"MEAN_ANOMALY":51.0473,"EPHEMERIS_TYPE":0,"CLASSIFICATION_TYPE":"U","NORAD_CAT_ID":65773,"ELEMENT_SET_NO":999,"REV_AT_EPOCH":2428,"BSTAR":0.0011894736,"MEAN_MOTION_DOT":0.00021108,"MEAN_MOTION_DDOT":0},{"OBJECT_NAME":"KUIPER-00155","OBJECT_ID":"2025-217N","EPOCH":"2026-03-05T04:52:17.600736","MEAN_MOTION":15.23017147,"ECCENTRICITY":0.0005452,"INCLINATION":51.879,"RA_OF_ASC_NODE":32.7411,"ARG_OF_PERICENTER":315.9213,"MEAN_ANOMALY":44.1332,"EPHEMERIS_TYPE":0,"CLASSIFICATION_TYPE":"U","NORAD_CAT_ID":65774,"ELEMENT_SET_NO":999,"REV_AT_EPOCH":2463,"BSTAR":0.00082241,"MEAN_MOTION_DOT":0.00019336,"MEAN_MOTION_DDOT":0},{"OBJECT_NAME":"KUIPER-00156","OBJECT_ID":"2025-217P","EPOCH":"2026-03-05T05:04:19.783776","MEAN_MOTION":14.79935123,"ECCENTRICITY":8.22e-5,"INCLINATION":51.9031,"RA_OF_ASC_NODE":45.4264,"ARG_OF_PERICENTER":92.3995,"MEAN_ANOMALY":267.7062,"EPHEMERIS_TYPE":0,"CLASSIFICATION_TYPE":"U","NORAD_CAT_ID":65775,"ELEMENT_SET_NO":999,"REV_AT_EPOCH":2445,"BSTAR":-0.00018522,"MEAN_MOTION_DOT":-1.633e-5,"MEAN_MOTION_DDOT":0},{"OBJECT_NAME":"KUIPER-00158","OBJECT_ID":"2025-217Q","EPOCH":"2026-03-05T03:31:45.102720","MEAN_MOTION":14.80486811,"ECCENTRICITY":0.0001067,"INCLINATION":51.8967,"RA_OF_ASC_NODE":65.5688,"ARG_OF_PERICENTER":43.1586,"MEAN_ANOMALY":316.946,"EPHEMERIS_TYPE":0,"CLASSIFICATION_TYPE":"U","NORAD_CAT_ID":65776,"ELEMENT_SET_NO":999,"REV_AT_EPOCH":2417,"BSTAR":0.00088534,"MEAN_MOTION_DOT":6.623e-5,"MEAN_MOTION_DDOT":0},{"OBJECT_NAME":"KUIPER-00163","OBJECT_ID":"2025-217R","EPOCH":"2026-03-05T04:00:01.999584","MEAN_MOTION":14.94006114,"ECCENTRICITY":5.51e-5,"INCLINATION":51.896,"RA_OF_ASC_NODE":67.3754,"ARG_OF_PERICENTER":295.4086,"MEAN_ANOMALY":138.8762,"EPHEMERIS_TYPE":0,"CLASSIFICATION_TYPE":"U","NORAD_CAT_ID":65777,"ELEMENT_SET_NO":999,"REV_AT_EPOCH":548,"BSTAR":0.00084055,"MEAN_MOTION_DOT":8.817e-5,"MEAN_MOTION_DDOT":0},{"OBJECT_NAME":"KUIPER-00165","OBJECT_ID":"2025-217S","EPOCH":"2026-03-05T03:11:33.748800","MEAN_MOTION":14.7993837,"ECCENTRICITY":8.81e-5,"INCLINATION":51.9008,"RA_OF_ASC_NODE":55.7459,"ARG_OF_PERICENTER":88.5598,"MEAN_ANOMALY":271.5466,"EPHEMERIS_TYPE":0,"CLASSIFICATION_TYPE":"U","NORAD_CAT_ID":65778,"ELEMENT_SET_NO":999,"REV_AT_EPOCH":2430,"BSTAR":-0.0014148,"MEAN_MOTION_DOT":-0.00010991,"MEAN_MOTION_DDOT":0},{"OBJECT_NAME":"KUIPER-00166","OBJECT_ID":"2025-217T","EPOCH":"2026-03-05T02:42:24.724224","MEAN_MOTION":14.79989781,"ECCENTRICITY":6.68e-5,"INCLINATION":51.9035,"RA_OF_ASC_NODE":43.3568,"ARG_OF_PERICENTER":100.2729,"MEAN_ANOMALY":259.8309,"EPHEMERIS_TYPE":0,"CLASSIFICATION_TYPE":"U","NORAD_CAT_ID":65779,"ELEMENT_SET_NO":999,"REV_AT_EPOCH":2447,"BSTAR":0.00082138,"MEAN_MOTION_DOT":6.054e-5,"MEAN_MOTION_DDOT":0}]
