KUIPER-00132            
1 65763U 25217B   26064.13965612  .00045044  00000+0  11294-2 0  9990
2 65763  51.8623  25.5809 0005892 311.0724  48.9754 15.39577988 24729
KUIPER-00133            
1 65764U 25217C   26064.04656215  .00002234  00000+0  32186-3 0  9995
2 65764  51.9042  73.6515 0002007  15.5231 344.5793 14.79950269 24052
KUIPER-00139            
1 65765U 25217D   26063.38548925  .00015260  00000+0  11756-2 0  9992
2 65765  51.8863  58.0808 0007124 302.6828  57.3456 15.01785245 24211
KUIPER-00142            
1 65766U 25217E   26064.16683121  .00004005  00000+0  55407-3 0  9995
2 65766  51.8999  55.5901 0000605  95.5888 264.5143 14.79933241 24310
KUIPER-00145            
1 65767U 25217F   26064.16403456  .00005297  00000+0  72312-3 0  9995
2 65767  51.8997  58.1155 0000831  95.5930 264.5127 14.79940369 24274
KUIPER-00147            
1 65768U 25217G   26063.99259495  .00004986  00000+0  68221-3 0  9996
2 65768  51.8992  61.3703 0000731  91.9425 268.1621 14.79956268 24211
KUIPER-00148            
1 65769U 25217H   26064.10438154  .00016009  00000+0  99951-3 0  9995
2 65769  51.8789  45.9004 0008472 338.6378  21.4242 15.09595108 24446
KUIPER-00150            
1 65770U 25217J   26064.04916071  .00005235  00000+0  71394-3 0  9999
2 65770  51.9004  71.1239 0000758  45.6229 314.4795 14.80003360 24089
KUIPER-00151            
1 65771U 25217K   26063.31457781  .00006931  00000+0  93651-3 0  9991
2 65771  51.9008  66.8695 0001029  49.5936 310.5116 14.79967528 24088
KUIPER-00152            
1 65772U 25217L   26063.96958127  .00000834  00000+0  13825-3 0  9994
2 65772  51.9005  51.4658 0000847 130.6061 229.4975 14.79970804 24355
KUIPER-00153            
1 65773U 25217M   26063.31514453  .00021108  00000+0  11895-2 0  9995
2 65773  51.8776  52.5687 0010496 308.9568  51.0473 15.13107826 24286
KUIPER-00155            
1 65774U 25217N   26064.20298149  .00019336  00000+0  82241-3 0  9990
2 65774  51.8790  32.7411 0005452 315.9213  44.1332 15.23017147 24632
KUIPER-00156            
1 65775U 25217P   26064.21134009 -.00001633  00000+0 -18522-3 0  9990
2 65775  51.9031  45.4264 0000822  92.3995 267.7062 14.79935123 24454
KUIPER-00158            
1 65776U 25217Q   26064.14704980  .00006623  00000+0  88534-3 0  9996
2 65776  51.8967  65.5688 0001067  43.1586 316.9460 14.80486811 24172
KUIPER-00163            
1 65777U 25217R   26064.16668981  .00008817  00000+0  84055-3 0  9990
2 65777  51.8960  67.3754 0000551 295.4086 138.8762 14.94006114  5482
KUIPER-00165            
1 65778U 25217S   26064.13302950 -.00010991  00000+0 -14148-2 0  9992
2 65778  51.9008  55.7459 0000881  88.5598 271.5466 14.79938370 24304
KUIPER-00166            
1 65779U 25217T   26064.11278616  .00006054  00000+0  82138-3 0  9990
2 65779  51.9035  43.3568 0000668 100.2729 259.8309 14.79989781 24475
